NORAD_CAT_ID,OBJECT_NAME,OBJECT_TYPE,EPOCH,MEAN_MOTION,ECCENTRICITY,INCLINATION,RA_OF_ASC_NODE,ARG_OF_PERICENTER,MEAN_ANOMALY,BSTAR,MEAN_MOTION_DOT,MEAN_MOTION_DDOT,TLE_LINE0,TLE_LINE1,TLE_LINE2,SEMIMAJOR_AXIS,PERIOD,APOGEE,PERIGEE,DECAYED
52273.0,STARLINK-3782,PAYLOAD,2024-08-08 07:30:35,15.08816771,0.000139,53.2159,175.9374,88.5355,271.5797,0.00080228,0.00012495,0.0,0 STARLINK-3782,1 52273U 22041N   24221.31290682  .00012495  00000-0  80228-3 0  9994,2 52273  53.2159 175.9374 0001390  88.5355 271.5797 15.08816771127180,6917.951,95.439,540.778,538.855,0.0
52273.0,STARLINK-3782,PAYLOAD,2024-08-09 05:45:59,15.08844926,0.0001115,53.2165,171.7694,100.0474,260.0644,8.885e-05,1.127e-05,0.0,0 STARLINK-3782,1 52273U 22041N   24222.24026773  .00001127  00000-0  88850-4 0  9995,2 52273  53.2165 171.7694 0001115 100.0474 260.0644 15.08844926127326,6917.865,95.437,540.502,538.959,0.0
52273.0,STARLINK-3782,PAYLOAD,2024-08-10 04:01:23,15.08846931,0.000129,53.2171,167.6089,116.528,243.5844,-9.3215e-05,-1.771e-05,0.0,0 STARLINK-3782,1 52273U 22041N   24223.16762798 -.00001771  00000-0 -93215-4 0  9999,2 52273  53.2171 167.6089 0001290 116.5280 243.5844 15.08846931128682,6917.859,95.437,540.617,538.832,0.0
52273.0,STARLINK-3782,PAYLOAD,2024-08-11 03:52:09,15.08848902,0.0001319,53.2166,163.1505,104.1598,255.9541,7.4673e-05,9.01e-06,0.0,0 STARLINK-3782,1 52273U 22041N   24224.16121966  .00000901  00000-0  74673-4 0  9995,2 52273  53.2166 163.1505 0001319 104.1598 255.9541 15.08848902128835,6917.853,95.437,540.631,538.806,0.0
52273.0,STARLINK-3782,PAYLOAD,2024-08-11 19:46:02,15.08820453,0.0001186,53.2162,160.1779,89.8497,270.2631,-7.6823e-05,-1.51e-05,0.0,0 STARLINK-3782,1 52273U 22041N   24224.82363711 -.00001510  00000-0 -76823-4 0  9992,2 52273  53.2162 160.1779 0001186  89.8497 270.2631 15.08820453128932,6917.94,95.439,540.626,538.985,0.0
52273.0,STARLINK-3782,PAYLOAD,2024-08-12 02:07:33,15.08837077,0.0001,53.2161,158.9884,89.4373,270.6734,1.8513e-05,7e-08,0.0,0 STARLINK-3782,1 52273U 22041N   24225.08858586  .00000007  00000-0  18513-4 0  9990,2 52273  53.2161 158.9884 0001000  89.4373 270.6734 15.08837077128979,6917.889,95.438,540.446,539.063,0.0
52273.0,STARLINK-3782,PAYLOAD,2024-08-12 13:15:13,15.08867579,0.0001429,53.2177,156.9118,64.3845,295.7295,0.00023061,3.387e-05,0.0,0 STARLINK-3782,1 52273U 22041N   24225.55223841  .00003387  00000-0  23061-3 0  9999,2 52273  53.2177 156.9118 0001429  64.3845 295.7295 15.08867579127828,6917.796,95.436,540.65,538.673,0.0
52273.0,STARLINK-3782,PAYLOAD,2024-08-13 01:58:24,15.08795224,0.0001518,53.2173,154.5304,88.3676,271.749,-0.00050966,-8.38e-05,0.0,0 STARLINK-3782,1 52273U 22041N   24226.08222272 -.00008380  00000-0 -50966-3 0  9999,2 52273  53.2173 154.5304 0001518  88.3676 271.7490 15.08795224129125,6918.017,95.44,540.932,538.832,0.0
52273.0,STARLINK-3782,PAYLOAD,2024-08-13 05:09:10,15.08795971,0.0001402,53.2178,153.9357,82.9807,277.1345,-0.00059922,-9.8e-05,0.0,0 STARLINK-3782,1 52273U 22041N   24226.21470768 -.00009800  00000-0 -59922-3 0  9998,2 52273  53.2178 153.9357 0001402  82.9807 277.1345 15.08795971127923,6918.015,95.44,540.85,538.91,0.0
52273.0,STARLINK-3782,PAYLOAD,2024-08-13 19:27:39,15.08789162,0.0001388,53.2175,151.2591,79.9144,280.2005,-0.00013431,-2.422e-05,0.0,0 STARLINK-3782,1 52273U 22041N   24226.81086867 -.00002422  00000-0 -13431-3 0  9995,2 52273  53.2175 151.2591 0001388  79.9144 280.2005 15.08789162129233,6918.036,95.441,540.861,538.941,0.0
52273.0,STARLINK-3782,PAYLOAD,2024-08-13 22:38:24,15.08805022,0.0001677,53.2174,150.6652,97.111,263.0073,-3.3546e-06,-3.41e-06,0.0,0 STARLINK-3782,1 52273U 22041N   24226.94333859 -.00000341  00000-0 -33546-5 0  9994,2 52273  53.2174 150.6652 0001677  97.1110 263.0073 15.08805022128034,6917.987,95.44,541.012,538.692,0.0
52273.0,STARLINK-3782,PAYLOAD,2024-08-14 04:59:56,15.08816331,0.0001388,53.2167,149.4736,82.5754,277.5396,-3.6514e-05,-8.69e-06,0.0,0 STARLINK-3782,1 52273U 22041N   24227.20829839 -.00000869  00000-0 -36514-4 0  9994,2 52273  53.2167 149.4736 0001388  82.5754 277.5396 15.08816331129298,6917.953,95.439,540.778,538.858,0.0
52273.0,STARLINK-3782,PAYLOAD,2024-08-14 11:21:28,15.08831988,0.0001482,53.2183,148.2883,87.2072,272.909,-2.5962e-05,-7.01e-06,0.0,0 STARLINK-3782,1 52273U 22041N   24227.47325112 -.00000701  00000-0 -25962-4 0  9998,2 52273  53.2183 148.2883 0001482  87.2072 272.9090 15.08831988129336,6917.905,95.438,540.795,538.745,0.0
52273.0,STARLINK-3782,PAYLOAD,2024-08-14 22:29:09,15.08836575,0.0001227,53.2163,146.2023,75.2649,284.8479,0.00021583,3.148e-05,0.0,0 STARLINK-3782,1 52273U 22041N   24227.93691958  .00003148  00000-0  21583-3 0  9993,2 52273  53.2163 146.2023 0001227  75.2649 284.8479 15.08836575128184,6917.891,95.438,540.605,538.907,0.0
52273.0,STARLINK-3782,PAYLOAD,2024-08-15 01:39:55,15.08843817,0.0001293,53.2174,145.6151,90.8356,269.2784,0.00034391,5.19e-05,0.0,0 STARLINK-3782,1 52273U 22041N   24228.06939252  .00005190  00000-0  34391-3 0  9990,2 52273  53.2174 145.6151 0001293  90.8356 269.2784 15.08843817129423,6917.869,95.437,540.628,538.839,0.0
52273.0,STARLINK-3782,PAYLOAD,2024-08-15 11:12:13,15.08839757,0.0001444,53.2173,143.8249,85.0884,275.0273,0.0007482,0.0001164,0.0,0 STARLINK-3782,1 52273U 22041N   24228.46682518  .00011640  00000-0  74820-3 0  9992,2 52273  53.2173 143.8249 0001444  85.0884 275.0273 15.08839757128267,6917.881,95.438,540.745,538.747,0.0
52273.0,STARLINK-3782,PAYLOAD,2024-08-15 22:19:59,15.0880981,0.0001394,53.2164,141.7424,72.6961,287.4184,2.2365e-05,6.8e-07,0.0,0 STARLINK-3782,1 52273U 22041N   24228.93054969  .00000068  00000-0  22365-4 0  9997,2 52273  53.2164 141.7424 0001394  72.6961 287.4184 15.08809810128334,6917.973,95.439,540.802,538.873,0.0
52273.0,STARLINK-3782,PAYLOAD,2024-08-16 01:30:45,15.08812326,0.000134,53.2168,141.1529,83.2808,276.8336,7.2091e-05,8.59e-06,0.0,0 STARLINK-3782,1 52273U 22041N   24229.06302850  .00000859  00000-0  72091-4 0  9996,2 52273  53.2168 141.1529 0001340  83.2808 276.8336 15.08812326129571,6917.965,95.439,540.757,538.903,0.0
52273.0,STARLINK-3782,PAYLOAD,2024-08-17 02:56:53,15.08854286,0.0001345,53.2163,136.3921,87.9843,272.1303,-0.00012431,-2.267e-05,0.0,0 STARLINK-3782,1 52273U 22041N   24230.12284151 -.00002267  00000-0 -12431-3 0  9996,2 52273  53.2163 136.3921 0001345  87.9843 272.1303 15.08854286129735,6917.837,95.437,540.632,538.771,0.0
52273.0,STARLINK-3782,PAYLOAD,2024-08-18 02:47:40,15.0883932,0.0001246,53.2164,131.9269,83.1206,276.9928,0.00010043,1.311e-05,0.0,0 STARLINK-3782,1 52273U 22041N   24231.11644092  .00001311  00000-0  10043-3 0  9994,2 52273  53.2164 131.9269 0001246  83.1206 276.9928 15.08839320129886,6917.882,95.438,540.609,538.885,0.0
52273.0,STARLINK-3782,PAYLOAD,2024-08-18 21:52:17,15.08841862,0.0001403,53.2172,128.3549,96.1578,263.9574,8.317e-05,1.036e-05,0.0,0 STARLINK-3782,1 52273U 22041N   24231.91131677  .00001036  00000-0  83170-4 0  9998,2 52273  53.2172 128.3549 0001403  96.1578 263.9574 15.08841862128782,6917.875,95.437,540.71,538.769,0.0
52273.0,STARLINK-3782,PAYLOAD,2024-08-19 10:35:22,15.08842531,0.0001327,53.2166,125.9798,122.0874,238.0247,0.00010126,1.324e-05,0.0,0 STARLINK-3782,1 52273U 22041N   24232.44123391  .00001324  00000-0  10126-3 0  9991,2 52273  53.2166 125.9798 0001327 122.0874 238.0247 15.08842531130087,6917.873,95.437,540.656,538.82,0.0
52273.0,STARLINK-3782,PAYLOAD,2024-08-20 02:29:14,15.08837781,0.0001453,53.2166,123.006,114.6407,245.4737,-7.5164e-06,-4.08e-06,0.0,0 STARLINK-3782,1 52273U 22041N   24233.10364251 -.00000408  00000-0 -75164-5 0  9996,2 52273  53.2166 123.0060 0001453 114.6407 245.4737 15.08837781130185,6917.887,95.438,540.757,538.747,0.0
52273.0,STARLINK-3782,PAYLOAD,2024-08-20 19:58:28,15.08844333,0.0001488,53.2167,119.7361,123.151,236.9625,5.0884e-05,5.22e-06,0.0,0 STARLINK-3782,1 52273U 22041N   24233.83227584  .00000522  00000-0  50884-4 0  9999,2 52273  53.2167 119.7361 0001488 123.1510 236.9625 15.08844333130294,6917.867,95.437,540.762,538.703,0.0
52273.0,STARLINK-3782,PAYLOAD,2024-08-20 23:09:14,15.08844814,0.0001404,53.2169,119.1417,105.3866,254.7281,6.5534e-05,7.55e-06,0.0,0 STARLINK-3782,1 52273U 22041N   24233.96475602  .00000755  00000-0  65534-4 0  9995,2 52273  53.2169 119.1417 0001404 105.3866 254.7281 15.08844814129092,6917.866,95.437,540.702,538.759,0.0
52273.0,STARLINK-3782,PAYLOAD,2024-08-21 19:49:16,15.08832664,0.000145,53.2168,115.2781,98.8092,261.3065,8.5581e-05,1.074e-05,0.0,0 STARLINK-3782,1 52273U 22041N   24234.82588427  .00001074  00000-0  85581-4 0  9990,2 52273  53.2168 115.2781 0001450  98.8092 261.3065 15.08832664130445,6917.903,95.438,540.771,538.765,0.0
52273.0,STARLINK-3782,PAYLOAD,2024-08-21 23:00:02,15.08834231,0.0001396,53.2168,114.6828,104.5425,255.5722,-1.1026e-06,-3.05e-06,0.0,0 STARLINK-3782,1 52273U 22041N   24234.95836630 -.00000305  00000-0 -11026-5 0  9998,2 52273  53.2168 114.6828 0001396 104.5425 255.5722 15.08834231129247,6917.898,95.438,540.729,538.797,0.0
